{"type": "FeatureCollection", "features": [ {"type": "Feature", "properties": {"norad_id": 31210, "name": "FENGYUN 1C DEB", "group": "fengyun-1c-debris", "lat": 11.08050874279829, "lon": -2.5377246823965445, "alt_km": 858.3721060602702, "timestamp": "2025-12-24T11:33:00.297967+00:00", "meta": {"OBJECT_NAME": "FENGYUN 1C DEB", "OBJECT_ID": "1999-025BKQ", "EPOCH": "2025-12-20T05:44:41.256096", "MEAN_MOTION": 14.12005396, "ECCENTRICITY": 0.0017465, "INCLINATION": 98.7185, "RA_OF_ASC_NODE": 355.0606, "ARG_OF_PERICENTER": 134.4184, "MEAN_ANOMALY": 286.6721, "EPHEMERIS_TYPE": 0, "CLASSIFICATION_TYPE": "U", "NORAD_CAT_ID": 31210, "ELEMENT_SET_NO": 999, "REV_AT_EPOCH": 96073, "BSTAR": 0.00028459, "MEAN_MOTION_DOT": 4.79e-06, "MEAN_MOTION_DDOT": 0}, "tle": {"line1": "1 31210U 99025BKQ 25354.23936639  .00000479  00000+0  28459-3 0  9992", "line2": "2 31210  98.7185 355.0606 0017465 134.4184 286.6721 14.12005396960738"}}, "geometry": {"type": "Point", "coordinates": [-2.5377246823965445, 11.08050874279829]}}, {"type": "Feature", "properties": {"norad_id": 31211, "name": "FENGYUN 1C DEB", "group": "fengyun-1c-debris", "lat": 37.39298166869112, "lon": -139.1439007742259, "alt_km": 819.7430834561528, "timestamp": "2025-12-24T11:33:00.297977+00:00", "meta": {"OBJECT_NAME": "FENGYUN 1C DEB", "OBJECT_ID": "1999-025BKR", "EPOCH": "2025-12-22T19:59:46.021056", "MEAN_MOTION": 14.20094058, "ECCENTRICITY": 0.0050213, "INCLINATION": 98.6718, "RA_OF_ASC_NODE": 32.542, "ARG_OF_PERICENTER": 60.4625, "MEAN_ANOMALY": 300.1545, "EPHEMERIS_TYPE": 0, "CLASSIFICATION_TYPE": "U", "NORAD_CAT_ID": 31211, "ELEMENT_SET_NO": 999, "REV_AT_EPOCH": 63436, "BSTAR": 0.00098818, "MEAN_MOTION_DOT": 2.09e-05, "MEAN_MOTION_DDOT": 0}, "tle": {"line1": "1 31211U 99025BKR 25356.83317154  .00002090  00000+0  98818-3 0  9993", "line2": "2 31211  98.6718  32.5420 0050213  60.4625 300.1545 14.20094058634362"}}, "geometry": {"type": "Point", "coordinates": [-139.1439007742259, 37.39298166869112]}}, {"type": "Feature", "properties": {"norad_id": 31212, "name": "FENGYUN 1C DEB", "group": "fengyun-1c-debris", "lat": -8.870563829949432, "lon": -151.15766603290626, "alt_km": 817.0969104264905, "timestamp": "2025-12-24T11:33:00.297987+00:00", "meta": {"OBJECT_NAME": "FENGYUN 1C DEB", "OBJECT_ID": "1999-025BKS", "EPOCH": "2025-12-14T12:45:56.653344", "MEAN_MOTION": 14.13124373, "ECCENTRICITY": 0.00752745, "INCLINATION": 99.2196, "RA_OF_ASC_NODE": 20.0508, "ARG_OF_PERICENTER": 167.0098, "MEAN_ANOMALY": 193.3035, "EPHEMERIS_TYPE": 0, "CLASSIFICATION_TYPE": "U", "NORAD_CAT_ID": 31212, "ELEMENT_SET_NO": 999, "REV_AT_EPOCH": 95684, "BSTAR": 0.0014706798, "MEAN_MOTION_DOT": 2.778e-05, "MEAN_MOTION_DDOT": 0}, "tle": {"line1": "1 31212U 99025BKS 25348.53190571  .00002778  00000+0  14707-2 0  9991", "line2": "2 31212  99.2196  20.0508 0075274 167.0098 193.3035 14.13124373956843"}}, "geometry": {"type": "Point", "coordinates": [-151.15766603290626, -8.870563829949432]}}, {"type": "Feature", "properties": {"norad_id": 31215, "name": "FENGYUN 1C DEB", "group": "fengyun-1c-debris", "lat": -36.98673513137483, "lon": -149.9798832338052, "alt_km": 742.9612057731092, "timestamp": "2025-12-24T11:33:00.297998+00:00", "meta": {"OBJECT_NAME": "FENGYUN 1C DEB", "OBJECT_ID": "1999-025BKV", "EPOCH": "2025-12-23T18:58:32.340576", "MEAN_MOTION": 14.33841717, "ECCENTRICITY": 0.00697478, "INCLINATION": 99.0705, "RA_OF_ASC_NODE": 202.3857, "ARG_OF_PERICENTER": 292.183, "MEAN_ANOMALY": 67.1963, "EPHEMERIS_TYPE": 0, "CLASSIFICATION_TYPE": "U", "NORAD_CAT_ID": 31215, "ELEMENT_SET_NO": 999, "REV_AT_EPOCH": 96684, "BSTAR": 0.00091518224, "MEAN_MOTION_DOT": 2.569e-05, "MEAN_MOTION_DDOT": 0}, "tle": {"line1": "1 31215U 99025BKV 25357.79065209  .00002569  00000+0  91518-3 0  9995", "line2": "2 31215  99.0705 202.3857 0069747 292.1830  67.1963 14.33841717966843"}}, "geometry": {"type": "Point", "coordinates": [-149.9798832338052, -36.98673513137483]}}, {"type": "Feature", "properties": {"norad_id": 31217, "name": "FENGYUN 1C DEB", "group": "fengyun-1c-debris", "lat": 29.92367536239163, "lon": -168.9331488109504, "alt_km": 765.5409915998662, "timestamp": "2025-12-24T11:33:00.298007+00:00", "meta": {"OBJECT_NAME": "FENGYUN 1C DEB", "OBJECT_ID": "1999-025BKX", "EPOCH": "2025-12-23T11:08:13.117344", "MEAN_MOTION": 14.17561975, "ECCENTRICITY": 0.0100075, "INCLINATION": 98.6404, "RA_OF_ASC_NODE": 5.0567, "ARG_OF_PERICENTER": 129.376, "MEAN_ANOMALY": 231.6333, "EPHEMERIS_TYPE": 0, "CLASSIFICATION_TYPE": "U", "NORAD_CAT_ID": 31217, "ELEMENT_SET_NO": 999, "REV_AT_EPOCH": 96500, "BSTAR": 0.00050456, "MEAN_MOTION_DOT": 1.035e-05, "MEAN_MOTION_DDOT": 0}, "tle": {"line1": "1 31217U 99025BKX 25357.46404071  .00001035  00000+0  50456-3 0  9998", "line2": "2 31217  98.6404   5.0567 0100075 129.3760 231.6333 14.17561975965008"}}, "geometry": {"type": "Point", "coordinates": [-168.9331488109504, 29.92367536239163]}}, {"type": "Feature", "properties": {"norad_id": 31218, "name": "FENGYUN 1C DEB", "group": "fengyun-1c-debris", "lat": -36.36272161469478, "lon": -76.89320514793083, "alt_km": 663.4672212681007, "timestamp": "2025-12-24T11:33:00.298017+00:00", "meta": {"OBJECT_NAME": "FENGYUN 1C DEB", "OBJECT_ID": "1999-025BKY", "EPOCH": "2025-12-22T12:55:13.212768", "MEAN_MOTION": 14.7294005, "ECCENTRICITY": 0.00117858, "INCLINATION": 98.8396, "RA_OF_ASC_NODE": 107.5728, "ARG_OF_PERICENTER": 357.51, "MEAN_ANOMALY": 2.6044, "EPHEMERIS_TYPE": 0, "CLASSIFICATION_TYPE": "U", "NORAD_CAT_ID": 31218, "ELEMENT_SET_NO": 999, "REV_AT_EPOCH": 97227, "BSTAR": 0.0045886009, "MEAN_MOTION_DOT": 0.00029528, "MEAN_MOTION_DDOT": 0}, "tle": {"line1": "1 31218U 99025BKY 25356.53834737  .00029528  00000+0  45886-2 0  9999", "line2": "2 31218  98.8396 107.5728 0011785 357.5100   2.6044 14.72940050972278"}}, "geometry": {"type": "Point", "coordinates": [-76.89320514793083, -36.36272161469478]}}, {"type": "Feature", "properties": {"norad_id": 31219, "name": "FENGYUN 1C DEB", "group": "fengyun-1c-debris", "lat": 68.70571791969267, "lon": -146.40271644430527, "alt_km": 792.5282548980877, "timestamp": "2025-12-24T11:33:00.298028+00:00", "meta": {"OBJECT_NAME": "FENGYUN 1C DEB", "OBJECT_ID": "1999-025BKZ", "EPOCH": "2025-12-21T11:42:00.500256", "MEAN_MOTION": 14.13828001, "ECCENTRICITY": 0.00793404, "INCLINATION": 99.2832, "RA_OF_ASC_NODE": 5.679, "ARG_OF_PERICENTER": 152.7688, "MEAN_ANOMALY": 207.7678, "EPHEMERIS_TYPE": 0, "CLASSIFICATION_TYPE": "U", "NORAD_CAT_ID": 31219, "ELEMENT_SET_NO": 999, "REV_AT_EPOCH": 95693, "BSTAR": 0.0010390741, "MEAN_MOTION_DOT": 1.981e-05, "MEAN_MOTION_DDOT": 0}, "tle": {"line1": "1 31219U 99025BKZ 25355.48750579  .00001981  00000+0  10391-2 0  9990", "line2": "2 31219  99.2832   5.6790 0079340 152.7688 207.7678 14.13828001956935"}}, "geometry": {"type": "Point", "coordinates": [-146.40271644430527, 68.70571791969267]}}, {"type": "Feature", "properties": {"norad_id": 31222, "name": "FENGYUN 1C DEB", "group": "fengyun-1c-debris", "lat": -63.701478353574196, "lon": -128.19655062318947, "alt_km": 678.2624882962582, "timestamp": "2025-12-24T11:33:00.298038+00:00", "meta": {"OBJECT_NAME": "FENGYUN 1C DEB", "OBJECT_ID": "1999-025BLC", "EPOCH": "2025-12-23T04:00:02.881728", "MEAN_MOTION": 14.97991492, "ECCENTRICITY": 0.01702236, "INCLINATION": 98.6111, "RA_OF_ASC_NODE": 68.2102, "ARG_OF_PERICENTER": 35.8106, "MEAN_ANOMALY": 325.4386, "EPHEMERIS_TYPE": 0, "CLASSIFICATION_TYPE": "U", "NORAD_CAT_ID": 31222, "ELEMENT_SET_NO": 999, "REV_AT_EPOCH": 139, "BSTAR": 0.00061762723, "MEAN_MOTION_DOT": 9.772e-05, "MEAN_MOTION_DDOT": 0}, "tle": {"line1": "1 31222U 99025BLC 25357.16670002  .00009772  00000+0  61763-3 0  9999", "line2": "2 31222  98.6111  68.2102 0170223  35.8106 325.4386 14.97991492  1394"}}, "geometry": {"type": "Point", "coordinates": [-128.19655062318947, -63.701478353574196]}}, {"type": "Feature", "properties": {"norad_id": 31223, "name": "FENGYUN 1C DEB", "group": "fengyun-1c-debris", "lat": -58.468737622675604, "lon": -100.82706503763617, "alt_km": 913.7162508597467, "timestamp": "2025-12-24T11:33:00.298048+00:00", "meta": {"OBJECT_NAME": "FENGYUN 1C DEB", "OBJECT_ID": "1999-025BLD", "EPOCH": "2025-12-21T15:50:07.551168", "MEAN_MOTION": 13.77299053, "ECCENTRICITY": 0.02441602, "INCLINATION": 99.0064, "RA_OF_ASC_NODE": 241.5163, "ARG_OF_PERICENTER": 17.3857, "MEAN_ANOMALY": 343.5475, "EPHEMERIS_TYPE": 0, "CLASSIFICATION_TYPE": "U", "NORAD_CAT_ID": 31223, "ELEMENT_SET_NO": 999, "REV_AT_EPOCH": 92851, "BSTAR": 0.0025014555, "MEAN_MOTION_DOT": 3.052e-05, "MEAN_MOTION_DDOT": 0}, "tle": {"line1": "1 31223U 99025BLD 25355.65980962  .00003052  00000+0  25015-2 0  9995", "line2": "2 31223  99.0064 241.5163 0244160  17.3857 343.5475 13.77299053928513"}}, "geometry": {"type": "Point", "coordinates": [-100.82706503763617, -58.468737622675604]}}, {"type": "Feature", "properties": {"norad_id": 31224, "name": "FENGYUN 1C DEB", "group": "fengyun-1c-debris", "lat": 6.6051575241113, "lon": 170.8864078307867, "alt_km": 716.0370656458726, "timestamp": "2025-12-24T11:33:00.298058+00:00", "meta": {"OBJECT_NAME": "FENGYUN 1C DEB", "OBJECT_ID": "1999-025BLE", "EPOCH": "2025-12-21T18:01:36.152832", "MEAN_MOTION": 14.28909208, "ECCENTRICITY": 0.01584909, "INCLINATION": 98.3705, "RA_OF_ASC_NODE": 347.2876, "ARG_OF_PERICENTER": 136.314, "MEAN_ANOMALY": 39.6223, "EPHEMERIS_TYPE": 0, "CLASSIFICATION_TYPE": "U", "NORAD_CAT_ID": 31224, "ELEMENT_SET_NO": 999, "REV_AT_EPOCH": 69379, "BSTAR": 0.00021705692, "MEAN_MOTION_DOT": 5.84e-06, "MEAN_MOTION_DDOT": 0}, "tle": {"line1": "1 31224U 99025BLE 25355.75111288  .00000584  00000+0  21706-3 0  9995", "line2": "2 31224  98.3705 347.2876 0158490 136.3140  39.6223 14.28909208693790"}}, "geometry": {"type": "Point", "coordinates": [170.8864078307867, 6.6051575241113]}}]}